[{"OBJECT_NAME":"HADES-ICM","OBJECT_ID":"2025-052BN","EPOCH":"2026-03-09T16:44:43.821024","MEAN_MOTION":15.5687434,"ECCENTRICITY":0.00089133,"INCLINATION":97.3947,"RA_OF_ASC_NODE":329.1452,"ARG_OF_PERICENTER":110.6367,"MEAN_ANOMALY":249.5845,"EPHEMERIS_TYPE":0,"CLASSIFICATION_TYPE":"U","NORAD_CAT_ID":63492,"ELEMENT_SET_NO":999,"REV_AT_EPOCH":5514,"BSTAR":0.0018517486,"MEAN_MOTION_DOT":0.00135148,"MEAN_MOTION_DDOT":0},{"OBJECT_NAME":"STARLINK-36596","OBJECT_ID":"2026-022Y","EPOCH":"2026-03-09T22:00:01.999584","MEAN_MOTION":15.67564438,"ECCENTRICITY":0.00018008,"INCLINATION":97.2851,"RA_OF_ASC_NODE":102.9458,"ARG_OF_PERICENTER":75.3907,"MEAN_ANOMALY":59.4629,"EPHEMERIS_TYPE":0,"CLASSIFICATION_TYPE":"U","NORAD_CAT_ID":67670,"ELEMENT_SET_NO":999,"REV_AT_EPOCH":608,"BSTAR":-0.01992773,"MEAN_MOTION_DOT":-0.01916486,"MEAN_MOTION_DDOT":0}]
